{
  "type": "FeatureCollection",
  "features": [
    {
      "type": "Feature",
      "properties": {
        "norad_id": 41772,
        "name": "SKYSAT-C5",
        "group": "resource",
        "lat": 18.543483578075723,
        "lon": 29.176837473834677,
        "alt_km": 462.66967356325586,
        "timestamp": "2025-12-13T20:38:50.652254+00:00",
        "meta_object_name": "SKYSAT-C5",
        "meta_object_id": "2016-058C",
        "meta_epoch": "2025-12-13T01:47:20.965344",
        "meta_mean_motion": 15.34778093,
        "meta_eccentricity": 0.00010953,
        "meta_inclination": 97.0765,
        "meta_ra_of_asc_node": 30.8111,
        "meta_arg_of_pericenter": 210.0244,
        "meta_mean_anomaly": 150.0938,
        "meta_ephemeris_type": 0,
        "meta_classification_type": "U",
        "meta_norad_cat_id": 41772,
        "meta_element_set_no": 999,
        "meta_rev_at_epoch": 51521,
        "meta_bstar": 0.00044404262,
        "meta_mean_motion_dot": 0.00014908,
        "meta_mean_motion_ddot": 0,
        "tle_line1": "1 41772U 16058C   25347.07454821  .00014908  00000+0  44404-3 0  9993",
        "tle_line2": "2 41772  97.0765  30.8111 0001095 210.0244 150.0938 15.34778093515216"
      },
      "geometry": {
        "type": "Point",
        "coordinates": [
          29.176837473834677,
          18.543483578075723
        ]
      }
    },
    {
      "type": "Feature",
      "properties": {
        "norad_id": 41773,
        "name": "SKYSAT-C2",
        "group": "resource",
        "lat": 40.838779776050806,
        "lon": 6.21045462488316,
        "alt_km": 448.1050448810156,
        "timestamp": "2025-12-13T20:38:50.652264+00:00",
        "meta_object_name": "SKYSAT-C2",
        "meta_object_id": "2016-058D",
        "meta_epoch": "2025-12-13T01:43:20.616960",
        "meta_mean_motion": 15.37281834,
        "meta_eccentricity": 0.00042036,
        "meta_inclination": 97.037,
        "meta_ra_of_asc_node": 11.5844,
        "meta_arg_of_pericenter": 33.4812,
        "meta_mean_anomaly": 326.6699,
        "meta_ephemeris_type": 0,
        "meta_classification_type": "U",
        "meta_norad_cat_id": 41773,
        "meta_element_set_no": 999,
        "meta_rev_at_epoch": 51641,
        "meta_bstar": 0.00045805845,
        "meta_mean_motion_dot": 0.00016674,
        "meta_mean_motion_ddot": 0,
        "tle_line1": "1 41773U 16058D   25347.07176640  .00016674  00000+0  45806-3 0  9993",
        "tle_line2": "2 41773  97.0370  11.5844 0004203  33.4812 326.6699 15.37281834516413"
      },
      "geometry": {
        "type": "Point",
        "coordinates": [
          6.21045462488316,
          40.838779776050806
        ]
      }
    },
    {
      "type": "Feature",
      "properties": {
        "norad_id": 41774,
        "name": "SKYSAT-C3",
        "group": "resource",
        "lat": -76.72967204970927,
        "lon": 170.5043712208272,
        "alt_km": 441.36800517380107,
        "timestamp": "2025-12-13T20:38:50.652274+00:00",
        "meta_object_name": "SKYSAT-C3",
        "meta_object_id": "2016-058E",
        "meta_epoch": "2025-12-13T02:25:33.470112",
        "meta_mean_motion": 15.44412706,
        "meta_eccentricity": 0.00016554,
        "meta_inclination": 96.9307,
        "meta_ra_of_asc_node": 20.83,
        "meta_arg_of_pericenter": 107.9662,
        "meta_mean_anomaly": 252.1768,
        "meta_ephemeris_type": 0,
        "meta_classification_type": "U",
        "meta_norad_cat_id": 41774,
        "meta_element_set_no": 999,
        "meta_rev_at_epoch": 51731,
        "meta_bstar": 0.00054298369,
        "meta_mean_motion_dot": 0.0002506,
        "meta_mean_motion_ddot": 0,
        "tle_line1": "1 41774U 16058E   25347.10108183  .00025060  00000+0  54298-3 0  9999",
        "tle_line2": "2 41774  96.9307  20.8300 0001655 107.9662 252.1768 15.44412706517312"
      },
      "geometry": {
        "type": "Point",
        "coordinates": [
          170.5043712208272,
          -76.72967204970927
        ]
      }
    },
    {
      "type": "Feature",
      "properties": {
        "norad_id": 41785,
        "name": "ALSAT 1B",
        "group": "resource",
        "lat": -5.960158886104761,
        "lon": 178.78394625935618,
        "alt_km": 657.7026943333512,
        "timestamp": "2025-12-13T20:38:50.652284+00:00",
        "meta_object_name": "ALSAT 1B",
        "meta_object_id": "2016-059C",
        "meta_epoch": "2025-12-13T06:45:21.498912",
        "meta_mean_motion": 14.72077378,
        "meta_eccentricity": 0.00107307,
        "meta_inclination": 97.7818,
        "meta_ra_of_asc_node": 359.0481,
        "meta_arg_of_pericenter": 101.4511,
        "meta_mean_anomaly": 258.7903,
        "meta_ephemeris_type": 0,
        "meta_classification_type": "U",
        "meta_norad_cat_id": 41785,
        "meta_element_set_no": 999,
        "meta_rev_at_epoch": 49322,
        "meta_bstar": 0.00017202831,
        "meta_mean_motion_dot": 1.035e-05,
        "meta_mean_motion_ddot": 0,
        "tle_line1": "1 41785U 16059C   25347.28149883  .00001035  00000+0  17203-3 0  9994",
        "tle_line2": "2 41785  97.7818 359.0481 0010730 101.4511 258.7903 14.72077378493221"
      },
      "geometry": {
        "type": "Point",
        "coordinates": [
          178.78394625935618,
          -5.960158886104761
        ]
      }
    },
    {
      "type": "Feature",
      "properties": {
        "norad_id": 41787,
        "name": "PATHFINDER 1",
        "group": "resource",
        "lat": -64.2053700399819,
        "lon": 154.07505616980117,
        "alt_km": 697.5019810420845,
        "timestamp": "2025-12-13T20:38:50.652295+00:00",
        "meta_object_name": "PATHFINDER 1",
        "meta_object_id": "2016-059E",
        "meta_epoch": "2025-12-13T06:26:30.367392",
        "meta_mean_motion": 14.67322965,
        "meta_eccentricity": 0.00300233,
        "meta_inclination": 97.8139,
        "meta_ra_of_asc_node": 350.0175,
        "meta_arg_of_pericenter": 79.6211,
        "meta_mean_anomaly": 280.8376,
        "meta_ephemeris_type": 0,
        "meta_classification_type": "U",
        "meta_norad_cat_id": 41787,
        "meta_element_set_no": 999,
        "meta_rev_at_epoch": 49244,
        "meta_bstar": 0.00024196993,
        "meta_mean_motion_dot": 1.328e-05,
        "meta_mean_motion_ddot": 0,
        "tle_line1": "1 41787U 16059E   25347.26840703  .00001328  00000+0  24197-3 0  9998",
        "tle_line2": "2 41787  97.8139 350.0175 0030023  79.6211 280.8376 14.67322965492443"
      },
      "geometry": {
        "type": "Point",
        "coordinates": [
          154.07505616980117,
          -64.2053700399819
        ]
      }
    },
    {
      "type": "Feature",
      "properties": {
        "norad_id": 41790,
        "name": "SCATSAT 1",
        "group": "resource",
        "lat": -73.1375033425379,
        "lon": 72.74747337543651,
        "alt_km": 677.1312047972751,
        "timestamp": "2025-12-13T20:38:50.652305+00:00",
        "meta_object_name": "SCATSAT 1",
        "meta_object_id": "2016-059H",
        "meta_epoch": "2025-12-13T06:22:35.041440",
        "meta_mean_motion": 14.78940977,
        "meta_eccentricity": 0.00562999,
        "meta_inclination": 98.1466,
        "meta_ra_of_asc_node": 43.9426,
        "meta_arg_of_pericenter": 126.3371,
        "meta_mean_anomaly": 234.3055,
        "meta_ephemeris_type": 0,
        "meta_classification_type": "U",
        "meta_norad_cat_id": 41790,
        "meta_element_set_no": 999,
        "meta_rev_at_epoch": 7410,
        "meta_bstar": 0.00037811873,
        "meta_mean_motion_dot": 2.808e-05,
        "meta_mean_motion_ddot": 0,
        "tle_line1": "1 41790U 16059H   25347.26568335  .00002808  00000+0  37812-3 0  9992",
        "tle_line2": "2 41790  98.1466  43.9426 0056299 126.3371 234.3055 14.78940977 74109"
      },
      "geometry": {
        "type": "Point",
        "coordinates": [
          72.74747337543651,
          -73.1375033425379
        ]
      }
    },
    {
      "type": "Feature",
      "properties": {
        "norad_id": 41875,
        "name": "GOKTURK 1A",
        "group": "resource",
        "lat": -55.108933095985726,
        "lon": -107.94255190597384,
        "alt_km": 691.8347791082879,
        "timestamp": "2025-12-13T20:38:50.652316+00:00",
        "meta_object_name": "GOKTURK 1A",
        "meta_object_id": "2016-073A",
        "meta_epoch": "2025-12-13T07:46:09.514272",
        "meta_mean_motion": 14.62781488,
        "meta_eccentricity": 0.00012132,
        "meta_inclination": 98.1424,
        "meta_ra_of_asc_node": 239.6812,
        "meta_arg_of_pericenter": 79.8763,
        "meta_mean_anomaly": 280.2576,
        "meta_ephemeris_type": 0,
        "meta_classification_type": "U",
        "meta_norad_cat_id": 41875,
        "meta_element_set_no": 999,
        "meta_rev_at_epoch": 48165,
        "meta_bstar": 0.00020134578,
        "meta_mean_motion_dot": 9.8e-06,
        "meta_mean_motion_ddot": 0,
        "tle_line1": "1 41875U 16073A   25347.32372123  .00000980  00000+0  20135-3 0  9996",
        "tle_line2": "2 41875  98.1424 239.6812 0001213  79.8763 280.2576 14.62781488481656"
      },
      "geometry": {
        "type": "Point",
        "coordinates": [
          -107.94255190597384,
          -55.108933095985726
        ]
      }
    }
  ]
}